{"epoch":1784710044,"count":18256,"objects":[{"id":"63027","name":"GLOBAL-31","type":"PAYLOAD","l1":"1 63027U 25033B   26202.30054802  .00008231  00000-0  22355-3 0  9999","l2":"2 63027  58.9973 178.3120 0012545  59.8011 300.4306 15.38391356 79572"},{"id":"64231","name":"GLOBAL-32","type":"PAYLOAD","l1":"1 64231U 25118B   26202.43035404  .00011267  00000-0  29225-3 0  9998","l2":"2 64231  58.9945 353.9518 0016996  64.8513 295.4324 15.39395801 63518"},{"id":"66554","name":"GLOBAL-33","type":"PAYLOAD","l1":"1 66554U 25267A   26202.41435605  .00007641  00000-0  21119-3 0  9993","l2":"2 66554  42.0181 217.0570 0008432 141.5703 218.5738 15.37305331 37313"},{"id":"68098","name":"GLOBAL-34","type":"PAYLOAD","l1":"1 68098U 26043A   26202.55814979  .00009861  00000-0  30825-3 0  9991","l2":"2 68098  42.0224  21.9524 0002785 195.9332 164.1419 15.33195572 21105"}]}