{"fetched_at":"2026-07-22T07:09:44.134Z","source":"https://celestrak.org/NORAD/elements/gp.php?NAME=GLOBAL&FORMAT=JSON","constellation":"blacksky-gen3","records":[{"OBJECT_NAME":"GLOBAL-31","OBJECT_ID":"2025-033B","EPOCH":"2026-07-21T07:12:47.348928","CLASSIFICATION_TYPE":"U","MEAN_MOTION":15.38391356,"ECCENTRICITY":0.00125453,"INCLINATION":58.9973,"RA_OF_ASC_NODE":178.312,"ARG_OF_PERICENTER":59.8011,"MEAN_ANOMALY":300.4306,"EPHEMERIS_TYPE":0,"NORAD_CAT_ID":63027,"ELEMENT_SET_NO":999,"REV_AT_EPOCH":7957,"BSTAR":0.0002235545,"MEAN_MOTION_DOT":0.00008231,"MEAN_MOTION_DDOT":0},{"OBJECT_NAME":"GLOBAL-32","OBJECT_ID":"2025-118B","EPOCH":"2026-07-21T10:19:42.589056","CLASSIFICATION_TYPE":"U","MEAN_MOTION":15.39395801,"ECCENTRICITY":0.00169958,"INCLINATION":58.9945,"RA_OF_ASC_NODE":353.9518,"ARG_OF_PERICENTER":64.8513,"MEAN_ANOMALY":295.4324,"EPHEMERIS_TYPE":0,"NORAD_CAT_ID":64231,"ELEMENT_SET_NO":999,"REV_AT_EPOCH":6351,"BSTAR":0.00029225032,"MEAN_MOTION_DOT":0.00011267,"MEAN_MOTION_DDOT":0},{"OBJECT_NAME":"GLOBAL-33","OBJECT_ID":"2025-267A","EPOCH":"2026-07-21T09:56:40.362720","CLASSIFICATION_TYPE":"U","MEAN_MOTION":15.37305331,"ECCENTRICITY":0.00084321,"INCLINATION":42.0181,"RA_OF_ASC_NODE":217.057,"ARG_OF_PERICENTER":141.5703,"MEAN_ANOMALY":218.5738,"EPHEMERIS_TYPE":0,"NORAD_CAT_ID":66554,"ELEMENT_SET_NO":999,"REV_AT_EPOCH":3731,"BSTAR":0.00021119177,"MEAN_MOTION_DOT":0.00007641,"MEAN_MOTION_DDOT":0},{"OBJECT_NAME":"GLOBAL-34","OBJECT_ID":"2026-043A","EPOCH":"2026-07-21T13:23:44.141856","CLASSIFICATION_TYPE":"U","MEAN_MOTION":15.33195572,"ECCENTRICITY":0.00027847,"INCLINATION":42.0224,"RA_OF_ASC_NODE":21.9524,"ARG_OF_PERICENTER":195.9332,"MEAN_ANOMALY":164.1419,"EPHEMERIS_TYPE":0,"NORAD_CAT_ID":68098,"ELEMENT_SET_NO":999,"REV_AT_EPOCH":2110,"BSTAR":0.00030825405,"MEAN_MOTION_DOT":0.00009861,"MEAN_MOTION_DDOT":0}]}
